$$SOE
2459580.500000000, A.D. 2022-Jan-01 00:00:00.0000, -1.574969644506285E+08, -3.946679995993239E+08, 2.352370951990919E+07,
2459587.500000000, A.D. 2022-Jan-08 00:00:00.0000, -1.484849729491114E+08, -3.999983139776803E+08, 2.473458914903466E+07,
2459594.500000000, A.D. 2022-Jan-15 00:00:00.0000, -1.393806500541791E+08, -4.050798843181085E+08, 2.593008819418837E+07,
2459601.500000000, A.D. 2022-Jan-22 00:00:00.0000, -1.301907309718984E+08, -4.099126841650473E+08, 2.710966325965445E+07,
2459608.500000000, A.D. 2022-Jan-29 00:00:00.0000, -1.209218363022058E+08, -4.144968350200087E+08, 2.827279397929573E+07,
2459615.500000000, A.D. 2022-Feb-05 00:00:00.0000, -1.115804739110719E+08, -4.188325993877092E+08, 2.941898249301785E+07,
2459622.500000000, A.D. 2022-Feb-12 00:00:00.0000, -1.021730389215501E+08, -4.229203751929680E+08, 3.054775264208798E+07,
2459629.500000000, A.D. 2022-Feb-19 00:00:00.0000, -9.270581312212728E+07, -4.267606891986201E+08, 3.165864920051748E+07,
2459636.500000000, A.D. 2022-Feb-26 00:00:00.0000, -8.318496507892492E+07, -4.303541901443551E+08, 3.275123720540722E+07,
2459643.500000000, A.D. 2022-Mar-05 00:00:00.0000, -7.361655076894298E+07, -4.337016422187881E+08, 3.382510132252194E+07,
2459650.500000000, A.D. 2022-Mar-12 00:00:00.0000, -6.400651449023134E+07, -4.368039189249426E+08, 3.487984522233687E+07,
2459657.500000000, A.D. 2022-Mar-19 00:00:00.0000, -5.436068995680884E+07, -4.396619973051593E+08, 3.591509096307576E+07,
2459664.500000000, A.D. 2022-Mar-26 00:00:00.0000, -4.468480153633279E+07, -4.422769525255296E+08, 3.693047837894852E+07,
2459671.500000000, A.D. 2022-Apr-02 00:00:00.0000, -3.498446554518156E+07, -4.446499528697055E+08, 3.792566446362859E+07,
2459678.500000000, A.D. 2022-Apr-09 00:00:00.0000, -2.526519131342773E+07, -4.467822551303228E+08, 3.890032272515939E+07,
2459685.500000000, A.D. 2022-Apr-16 00:00:00.0000, -1.553238164861251E+07, -4.486751997355137E+08, 3.985414253342767E+07,
2459692.500000000, A.D. 2022-Apr-23 00:00:00.0000, -5.791333953935310E+06, -4.503302045160601E+08, 4.078682866517586E+07,
2459699.500000000, A.D. 2022-Apr-30 00:00:00.0000, 3.952756142699053E+06, -4.517487593471210E+08, 4.169810103408936E+07,
2459706.500000000, A.D. 2022-May-07 00:00:00.0000, 1.369479172599872E+07, -4.529324236284953E+08, 4.258769416327219E+07,
2459713.500000000, A.D. 2022-May-14 00:00:00.0000, 2.342977349967101E+07, -4.538828235590028E+08, 4.345535652115554E+07,
2459720.500000000, A.D. 2022-May-21 00:00:00.0000, 3.315279864154467E+07, -4.546016484412181E+08, 4.430084996978661E+07,
2459727.500000000, A.D. 2022-May-28 00:00:00.0000, 4.285905913718453E+07, -4.550906469696149E+08, 4.512394929168995E+07,
2459734.500000000, A.D. 2022-Jun-04 00:00:00.0000, 5.254383987620977E+07, -4.553516238080962E+08, 4.592444174469541E+07,
2459741.500000000, A.D. 2022-Jun-11 00:00:00.0000, 6.220251666232750E+07, -4.553864364466901E+08, 4.670212663166818E+07,
2459748.500000000, A.D. 2022-Jun-18 00:00:00.0000, 7.183055418194063E+07, -4.551969923153253E+08, 4.745681488239048E+07,
2459755.500000000, A.D. 2022-Jun-25 00:00:00.0000, 8.142350396699820E+07, -4.547852461790690E+08, 4.818832864179304E+07,
2459762.500000000, A.D. 2022-Jul-02 00:00:00.0000, 9.097700249216603E+07, -4.541531978724002E+08, 4.889650084658569E+07,
2459769.500000000, A.D. 2022-Jul-09 00:00:00.0000, 1.004867698020753E+08, -4.533028901880728E+08, 4.958117476881023E+07,
2459776.500000000, A.D. 2022-Jul-16 00:00:00.0000, 1.099486086182793E+08, -4.522364058307062E+08, 5.024220361977026E+07,
2459783.500000000, A.D. 2022-Jul-23 00:00:00.0000, 1.193584017316855E+08, -4.509558633501660E+08, 5.087945042212854E+07,
2459790.500000000, A.D. 2022-Jul-30 00:00:00.0000, 1.287121077687318E+08, -4.494634154010995E+08, 5.149278786799659E+07,
2459797.500000000, A.D. 2022-Aug-06 00:00:00.0000, 1.380057589346326E+08, -4.477612486742395E+08, 5.208209788576502E+07,
2459804.500000000, A.D. 2022-Aug-13 00:00:00.0000, 1.472354599143533E+08, -4.458515827404801E+08, 5.264727121656768E+07,
2459811.500000000, A.D. 2022-Aug-20 00:00:00.0000, 1.563973863646471E+08, -4.437366683066606E+08, 5.318820710346092E+07,
2459818.500000000, A.D. 2022-Aug-27 00:00:00.0000, 1.654877830673423E+08, -4.414187856047936E+08, 5.370481302778219E+07,
2459825.500000000, A.D. 2022-Sep-03 00:00:00.0000, 1.745029619934894E+08, -4.389002430203230E+08, 5.419700446084756E+07,
2459832.500000000, A.D. 2022-Sep-10 00:00:00.0000, 1.834393003698406E+08, -4.361833759304583E+08, 5.466470462445089E+07,
2459839.500000000, A.D. 2022-Sep-17 00:00:00.0000, 1.922932387783347E+08, -4.332705457491302E+08, 5.510784425689597E+07,
2459846.500000000, A.D. 2022-Sep-24 00:00:00.0000, 2.010612793504885E+08, -4.301641392243499E+08, 5.552636137434435E+07,
2459853.500000000, A.D. 2022-Oct-01 00:00:00.0000, 2.097399842984200E+08, -4.268665680057805E+08, 5.592020100321776E+07,
2459860.500000000, A.D. 2022-Oct-08 00:00:00.0000, 2.183259751914156E+08, -4.233802679568885E+08, 5.628931488870879E+07,
2459867.500000000, A.D. 2022-Oct-15 00:00:00.0000, 2.268159320471257E+08, -4.197076970094392E+08, 5.663366136259826E+07,
2459874.500000000, A.D. 2022-Oct-22 00:00:00.0000, 2.352065900558898E+08, -4.158513332404891E+08, 5.695320543225314E+07,
2459881.500000000, A.D. 2022-Oct-29 00:00:00.0000, 2.434947364363332E+08, -4.118136757606776E+08, 5.724791864883009E+07,
2459888.500000000, A.D. 2022-Nov-05 00:00:00.0000, 2.516772095228570E+08, -4.075972456689014E+08, 5.751777878552763E+07,
2459895.500000000, A.D. 2022-Nov-12 00:00:00.0000, 2.597508981214125E+08, -4.032045858035762E+08, 5.776276960941446E+07,
2459902.500000000, A.D. 2022-Nov-19 00:00:00.0000, 2.677127404149289E+08, -3.986382602421911E+08, 5.798288073460980E+07,
2459909.500000000, A.D. 2022-Nov-26 00:00:00.0000, 2.755597226811461E+08, -3.939008539440705E+08, 5.817810750006980E+07,
2459916.500000000, A.D. 2022-Dec-03 00:00:00.0000, 2.832888779892272E+08, -3.889949725456820E+08, 5.834845085564120E+07,
2459923.500000000, A.D. 2022-Dec-10 00:00:00.0000, 2.908972849205946E+08, -3.839232422877445E+08, 5.849391725355944E+07,
2459930.500000000, A.D. 2022-Dec-17 00:00:00.0000, 2.983820663380753E+08, -3.786883100968187E+08, 5.861451854074697E+07,
2459937.500000000, A.D. 2022-Dec-24 00:00:00.0000, 3.057403883118827E+08, -3.732928438843010E+08, 5.871027183596279E+07,
2459944.500000000, A.D. 2022-Dec-31 00:00:00.0000, 3.129694595597345E+08, -3.677395329519972E+08, 5.878119936723630E+07,
2459951.500000000, A.D. 2023-Jan-07 00:00:00.0000, 3.200665315243885E+08, -3.620310875390879E+08, 5.882732833670802E+07,
2459958.500000000, A.D. 2023-Jan-14 00:00:00.0000, 3.270288971224735E+08, -3.561702370117692E+08, 5.884869103387487E+07,
2459965.500000000, A.D. 2023-Jan-21 00:00:00.0000, 3.338538875203893E+08, -3.501597298662648E+08, 5.884532499698336E+07,
2459972.500000000, A.D. 2023-Jan-28 00:00:00.0000, 3.405388706061521E+08, -3.440023357386396E+08, 5.881727287009773E+07,
2459979.500000000, A.D. 2023-Feb-04 00:00:00.0000, 3.470812509501038E+08, -3.377008463928531E+08, 5.876458222277448E+07,
2459986.500000000, A.D. 2023-Feb-11 00:00:00.0000, 3.534784694601153E+08, -3.312580758805208E+08, 5.868730548163579E+07,
2459993.500000000, A.D. 2023-Feb-18 00:00:00.0000, 3.597280026681895E+08, -3.246768606949521E+08, 5.858549991256367E+07,
2460000.500000000, A.D. 2023-Feb-25 00:00:00.0000, 3.658273619113068E+08, -3.179600600800955E+08, 5.845922761623029E+07,
2460007.500000000, A.D. 2023-Mar-04 00:00:00.0000, 3.717740925089026E+08, -3.111105564742011E+08, 5.830855552913747E+07,
2460014.500000000, A.D. 2023-Mar-11 00:00:00.0000, 3.775657729658743E+08, -3.041312560862982E+08, 5.813355542759877E+07,
2460021.500000000, A.D. 2023-Mar-18 00:00:00.0000, 3.832000142483805E+08, -2.970250896534792E+08, 5.793430392626831E+07,
2460028.500000000, A.D. 2023-Mar-25 00:00:00.0000, 3.886744593360075E+08, -2.897950134243853E+08, 5.771088244862337E+07,
2460035.500000000, A.D. 2023-Apr-01 00:00:00.0000, 3.939867834758070E+08, -2.824440099736034E+08, 5.746337716270263E+07,
2460042.500000000, A.D. 2023-Apr-08 00:00:00.0000, 3.991346945247024E+08, -2.749750876211093E+08, 5.719187903914798E+07,
2460049.500000000, A.D. 2023-Apr-15 00:00:00.0000, 4.041159310445958E+08, -2.673912795631201E+08, 5.689648415598950E+07,
2460056.500000000, A.D. 2023-Apr-22 00:00:00.0000, 4.089282599592220E+08, -2.596956457656519E+08, 5.657729383467204E+07,
2460063.500000000, A.D. 2023-Apr-29 00:00:00.0000, 4.135694765080178E+08, -2.518912753661529E+08, 5.623441454026627E+07,
2460070.500000000, A.D. 2023-May-06 00:00:00.0000, 4.180374047382099E+08, -2.439812878009182E+08, 5.586795785290809E+07,
2460077.500000000, A.D. 2023-May-13 00:00:00.0000, 4.223298975598518E+08, -2.359688335512673E+08, 5.547804052709684E+07,
2460084.500000000, A.D. 2023-May-20 00:00:00.0000, 4.264448365992734E+08, -2.278570949990055E+08, 5.506478457716231E+07,
2460091.500000000, A.D. 2023-May-27 00:00:00.0000, 4.303801320457735E+08, -2.196492874199677E+08, 5.462831736859079E+07,
2460098.500000000, A.D. 2023-Jun-03 00:00:00.0000, 4.341337225506001E+08, -2.113486600890602E+08, 5.416877171187623E+07,
2460105.500000000, A.D. 2023-Jun-10 00:00:00.0000, 4.377035752034940E+08, -2.029584975100667E+08, 5.368628595539263E+07,
2460112.500000000, A.D. 2023-Jun-17 00:00:00.0000, 4.410876856770977E+08, -1.944821208297943E+08, 5.318100406392036E+07,
2460119.500000000, A.D. 2023-Jun-24 00:00:00.0000, 4.442840788602580E+08, -1.859228893799098E+08, 5.265307565761617E+07,
2460126.500000000, A.D. 2023-Jul-01 00:00:00.0000, 4.472908102351506E+08, -1.772842015167253E+08, 5.210265605568854E+07,
2460133.500000000, A.D. 2023-Jul-08 00:00:00.0000, 4.501059663276432E+08, -1.685694939360039E+08, 5.152990654585986E+07,
2460140.500000000, A.D. 2023-Jul-15 00:00:00.0000, 4.527276629571953E+08, -1.597822422930330E+08, 5.093499476579487E+07,
2460147.500000000, A.D. 2023-Jul-22 00:00:00.0000, 4.551540448089232E+08, -1.509259641618595E+08, 5.031809478871465E+07,
$$EOE